sat27804
1 27804U 91068AR  20046.60360361  .00000682  00000-0  30126-2 0  9992
2 27804  82.6142  82.6446 0258436 117.4936  40.5871 12.68497845324014
